STARLINK-31292          
1 59081U 24041H   26169.18260270 -.00000051  00000+0  76553-5 0  9991
2 59081  43.0020 102.9145 0000779 264.8948  95.1814 15.27574745129636
STARLINK-31286          
1 59082U 24041J   26169.18647697 -.00000439  00000+0 -64537-5 0  9994
2 59082  42.9991 102.9411 0000378 118.3792 241.7098 15.27568867129724
STARLINK-31252          
1 59083U 24041K   26167.34951140 -.00000168  00000+0  34266-5 0  9996
2 59083  43.0064  30.3407 0000844 267.6258  92.4497 15.27574502130369
STARLINK-31261          
1 59084U 24041L   26169.14934349 -.00000044  00000+0  79230-5 0  9992
2 59084  43.0046 103.5181 0001394 267.6751  92.3941 15.27575445129684
STARLINK-31290          
1 59085U 24041M   26169.17038972 -.00001937  00000+0 -60872-4 0  9997
2 59085  43.0062  88.9745 0001360 288.2608  71.8096 15.27576028129948
STARLINK-31279          
1 59086U 24041N   26169.16347216  .00000516  00000+0  28259-4 0  9994
2 59086  42.9996 103.6224 0001109 262.0784  97.9942 15.27578692129685
STARLINK-31266          
1 59087U 24041P   26169.19030778  .00000772  00000+0  37578-4 0  9998
2 59087  43.0013 102.9730 0001066 258.4429 101.6303 15.27576889129690
STARLINK-31313          
1 59088U 24041Q   26169.19288613 -.00001159  00000+0 -32615-4 0  9991
2 59088  43.0036 102.9885 0000637 279.2586  80.8194 15.27569043129640
STARLINK-31307          
1 59089U 24041R   26169.18901032  .00001159  00000+0  51603-4 0  9994
2 59089  43.0012 102.9650 0000748 263.9188  96.1579 15.27587342129690
STARLINK-31316          
1 59090U 24041S   26169.06168618 -.00000117  00000+0  52664-5 0  9991
2 59090  43.0019  57.0418 0001173 267.2005  92.8713 15.27575684130106
STARLINK-31310          
1 59092U 24041U   26169.16989599  .00000113  00000+0  13614-4 0  9999
2 59092  43.0005 103.6713 0000855 267.7320  92.3434 15.27577526129638
STARLINK-31343          
1 59093U 24041V   26168.11084810  .00002965  00000+0  11716-3 0  9993
2 59093  43.0050 109.4823 0001646 263.4388  96.6276 15.27597897129523
STARLINK-31295          
1 59095U 24041X   26169.20058459  .00000855  00000+0  40596-4 0  9991
2 59095  43.0077 103.0388 0001616 260.2682  99.7987 15.27580835129649
STARLINK-31291          
1 59096U 24041Y   26169.19801910  .00000052  00000+0  11407-4 0  9996
2 59096  43.0043 103.0235 0001246 276.6230  83.4480 15.27575839129649
HORACIO                 
1 59098U 24043A   26169.28875115  .00001504  00000+0  13062-3 0  9999
2 59098  97.8507 301.0723 0010712  20.1831 339.9812 14.98521874124833
MUSAT-2                 
1 59099U 24043B   26169.31729014  .00005017  00000+0  32484-3 0  9992
2 59099  97.8614 307.9939 0006310 340.0037  20.0943 15.08611732125264
ICEYE-X38               
1 59100U 24043C   26169.24191806  .00003355  00000+0  19473-3 0  9995
2 59100  97.8410 313.0171 0003944  86.9918 273.1763 15.12862792111839
ICEYE-X37               
1 59102U 24043E   26169.17722531  .00002908  00000+0  20283-3 0  9998
2 59102  97.8321 306.1930 0015233  12.1778 347.9813 15.06126441125239
ICEYE-X36               
1 59103U 24043F   26169.31318260  .00003120  00000+0  21344-3 0  9991
2 59103  97.8379 307.4040 0004836 328.4369  31.6567 15.06873498125318
PE2_FLT2  (TYVAK-0262)  
1 59104U 24043G   26169.18989393  .00002229  00000+0  19769-3 0  9995
2 59104  97.8412 299.8690 0007315  51.4922 308.6955 14.97228782124805
PE2_FLT1 (TYVAK-0261)   
1 59105U 24043H   26169.19005960  .00002154  00000+0  19125-3 0  9999
2 59105  97.8399 299.8343 0007138  48.0000 312.1828 14.97219871124805
RROCI-2                 
1 59106U 24043J   26169.32041975  .00002634  00000+0  21685-3 0  9998
2 59106  97.8491 302.0833 0010855  24.3916 335.7818 14.99940378124932
BRO-13                  
1 59107U 24043K   26169.29590480  .00000888  00000+0  83193-4 0  9997
2 59107  97.8493 300.3178 0008714   3.6522 356.4761 14.96593481124788
BRO-12                  
1 59108U 24043L   26169.29183679  .00000883  00000+0  82218-4 0  9998
2 59108  97.8480 300.4773 0008000 358.3251   1.7943 14.96837493124803
SONATE-2                
1 59112U 24043Q   26168.97287232  .00033352  00000+0  43246-3 0  9991
2 59112  97.5538 319.4165 0007088 192.8072 167.3005 15.58769943128019
CONTECSAT-1             
1 59117U 24043V   26169.32748498  .00007496  00000+0  21159-3 0  9991
2 59117  97.5652 310.3765 0009352 225.2754 134.7729 15.36645598127421
TIGER-8                 
1 59120U 24043Y   26168.93129347  .00008273  00000+0  17916-3 0  9997
2 59120  97.5550 317.5881 0007370 190.1216 169.9885 15.44694446127902
LYNK TOWER 5            
1 59121U 24043Z   26168.91411688  .00004724  00000+0  16162-3 0  9997
2 59121  97.5642 306.4243 0009809 240.8658 119.1601 15.30720548127154
NUSAT-44 (MARIA MITCHE*)
1 59122U 24043AA  26168.47173439  .00009190  00000+0  31862-3 0  9994
2 59122  97.5456 308.7387 0006201 224.1630 135.9115 15.30031976127314
LYNK TOWER 6            
1 59123U 24043AB  26169.31961465  .00004261  00000+0  14408-3 0  9994
2 59123  97.5605 306.3368 0008951 234.5283 125.5123 15.31172137127205
