OBJECT_NAME,OBJECT_ID,EPOCH,MEAN_MOTION,ECCENTRICITY,INCLINATION,RA_OF_ASC_NODE,ARG_OF_PERICENTER,MEAN_ANOMALY,EPHEMERIS_TYPE,CLASSIFICATION_TYPE,NORAD_CAT_ID,ELEMENT_SET_NO,REV_AT_EPOCH,BSTAR,MEAN_MOTION_DOT,MEAN_MOTION_DDOT
STARLINK-31292,2024-041H,2026-06-18T04:22:56.873280,15.27574745,.00007791,43.0020,102.9145,264.8948,95.1814,0,U,59081,999,12963,.7655278E-5,-.51E-6,0
STARLINK-31286,2024-041J,2026-06-18T04:28:31.610208,15.27568867,.00003785,42.9991,102.9411,118.3792,241.7098,0,U,59082,999,12972,-.6453732E-5,-.439E-5,0
STARLINK-31252,2024-041K,2026-06-16T08:23:17.784960,15.27574502,.00008443,43.0064,30.3407,267.6258,92.4497,0,U,59083,999,13036,.3426627E-5,-.168E-5,0
STARLINK-31261,2024-041L,2026-06-18T03:35:03.277536,15.27575445,.00013947,43.0046,103.5181,267.6751,92.3941,0,U,59084,999,12968,.7923034E-5,-.44E-6,0
STARLINK-31290,2024-041M,2026-06-18T04:05:21.671808,15.27576028,.00013603,43.0062,88.9745,288.2608,71.8096,0,U,59085,999,12994,-.60872081E-4,-.1937E-4,0
STARLINK-31279,2024-041N,2026-06-18T03:55:23.994624,15.27578692,.00011094,42.9996,103.6224,262.0784,97.9942,0,U,59086,999,12968,.28258906E-4,.516E-5,0
STARLINK-31266,2024-041P,2026-06-18T04:34:02.592192,15.27576889,.00010662,43.0013,102.9730,258.4429,101.6303,0,U,59087,999,12969,.37578059E-4,.772E-5,0
STARLINK-31313,2024-041Q,2026-06-18T04:37:45.361632,15.27569043,.00006373,43.0036,102.9885,279.2586,80.8194,0,U,59088,999,12964,-.32615052E-4,-.1159E-4,0
STARLINK-31307,2024-041R,2026-06-18T04:32:10.491648,15.27587342,.00007488,43.0012,102.9650,263.9188,96.1579,0,U,59089,999,12969,.51603298E-4,.1159E-4,0
STARLINK-31316,2024-041S,2026-06-18T01:28:49.685952,15.27575684,.00011732,43.0019,57.0418,267.2005,92.8713,0,U,59090,999,13010,.5266439E-5,-.117E-5,0
STARLINK-31310,2024-041U,2026-06-18T04:04:39.013536,15.27577526,.00008552,43.0005,103.6713,267.7320,92.3434,0,U,59092,999,12963,.1361382E-4,.113E-5,0
STARLINK-31343,2024-041V,2026-06-17T02:39:37.275840,15.27597897,.00016467,43.0050,109.4823,263.4388,96.6276,0,U,59093,999,12952,.11716066E-3,.2965E-4,0
STARLINK-31295,2024-041X,2026-06-18T04:48:50.508576,15.27580835,.00016167,43.0077,103.0388,260.2682,99.7987,0,U,59095,999,12964,.40596171E-4,.855E-5,0
STARLINK-31291,2024-041Y,2026-06-18T04:45:08.850240,15.27575839,.0001246,43.0043,103.0235,276.6230,83.4480,0,U,59096,999,12964,.11407382E-4,.52E-6,0
HORACIO,2024-043A,2026-06-18T06:55:48.099360,14.98521874,.00107127,97.8507,301.0723,20.1831,339.9812,0,U,59098,999,12483,.13062249E-3,.1504E-4,0
MUSAT-2,2024-043B,2026-06-18T07:36:53.868096,15.08611732,.00063104,97.8614,307.9939,340.0037,20.0943,0,U,59099,999,12526,.3248383E-3,.5017E-4,0
ICEYE-X38,2024-043C,2026-06-18T05:48:21.720384,15.12862792,.00039441,97.8410,313.0171,86.9918,273.1763,0,U,59100,999,11183,.19472982E-3,.3355E-4,0
ICEYE-X37,2024-043E,2026-06-18T04:15:12.266784,15.06126441,.00152339,97.8321,306.1930,12.1778,347.9813,0,U,59102,999,12523,.20283191E-3,.2908E-4,0
ICEYE-X36,2024-043F,2026-06-18T07:30:58.976640,15.06873498,.00048364,97.8379,307.4040,328.4369,31.6567,0,U,59103,999,12531,.21343506E-3,.312E-4,0
PE2_FLT2  (TYVAK-0262),2024-043G,2026-06-18T04:33:26.835552,14.97228782,.00073151,97.8412,299.8690,51.4922,308.6955,0,U,59104,999,12480,.19768538E-3,.2229E-4,0
PE2_FLT1 (TYVAK-0261),2024-043H,2026-06-18T04:33:41.149440,14.97219871,.00071387,97.8399,299.8343,48.0000,312.1828,0,U,59105,999,12480,.19125362E-3,.2154E-4,0
RROCI-2,2024-043J,2026-06-18T07:41:24.266400,14.99940378,.00108554,97.8491,302.0833,24.3916,335.7818,0,U,59106,999,12493,.21685228E-3,.2634E-4,0
BRO-13,2024-043K,2026-06-18T07:06:06.174720,14.96593481,.0008714,97.8493,300.3178,3.6522,356.4761,0,U,59107,999,12478,.83193403E-4,.888E-5,0
BRO-12,2024-043L,2026-06-18T07:00:14.698656,14.96837493,.00080001,97.8480,300.4773,358.3251,1.7943,0,U,59108,999,12480,.82218298E-4,.883E-5,0
SONATE-2,2024-043Q,2026-06-17T23:20:56.168448,15.58769943,.00070884,97.5538,319.4165,192.8072,167.3005,0,U,59112,999,12801,.43245733E-3,.33352E-3,0
CONTECSAT-1,2024-043V,2026-06-18T07:51:34.702272,15.36645598,.00093523,97.5652,310.3765,225.2754,134.7729,0,U,59117,999,12742,.2115934E-3,.7496E-4,0
TIGER-8,2024-043Y,2026-06-17T22:21:03.755808,15.44694446,.00073709,97.5550,317.5881,190.1216,169.9885,0,U,59120,999,12790,.17916033E-3,.8273E-4,0
LYNK TOWER 5,2024-043Z,2026-06-17T21:56:19.698432,15.30720548,.00098092,97.5642,306.4243,240.8658,119.1601,0,U,59121,999,12715,.1616239E-3,.4724E-4,0
NUSAT-44 (MARIA MITCHELL),2024-043AA,2026-06-17T11:19:17.851296,15.30031976,.00062012,97.5456,308.7387,224.1630,135.9115,0,U,59122,999,12731,.31861527E-3,.919E-4,0
LYNK TOWER 6,2024-043AB,2026-06-18T07:40:14.705760,15.31172137,.00089512,97.5605,306.3368,234.5283,125.5123,0,U,59123,999,12720,.14408055E-3,.4261E-4,0
